[{"OBJECT_NAME":"PHISAT 2","OBJECT_ID":"2024-149C","EPOCH":"2026-03-09T18:55:12.732384","MEAN_MOTION":15.29548632,"ECCENTRICITY":0.00011753,"INCLINATION":97.3806,"RA_OF_ASC_NODE":148.6498,"ARG_OF_PERICENTER":168.623,"MEAN_ANOMALY":191.5037,"EPHEMERIS_TYPE":0,"CLASSIFICATION_TYPE":"U","NORAD_CAT_ID":60470,"ELEMENT_SET_NO":999,"REV_AT_EPOCH":8679,"BSTAR":0.00031420974,"MEAN_MOTION_DOT":8.925e-5,"MEAN_MOTION_DDOT":0},{"OBJECT_NAME":"STARLINK-35558","OBJECT_ID":"2025-235C","EPOCH":"2026-03-09T17:31:36.985152","MEAN_MOTION":15.30199235,"ECCENTRICITY":0.00010536,"INCLINATION":53.1589,"RA_OF_ASC_NODE":245.3685,"ARG_OF_PERICENTER":102.5501,"MEAN_ANOMALY":257.5617,"EPHEMERIS_TYPE":0,"CLASSIFICATION_TYPE":"U","NORAD_CAT_ID":66060,"ELEMENT_SET_NO":999,"REV_AT_EPOCH":2292,"BSTAR":0.00044392213,"MEAN_MOTION_DOT":0.00012811,"MEAN_MOTION_DDOT":0}]
